{
    "links": {
        "self": "http://www.neowsapp.com/rest/v1/neo/3648677?api_key=iIulBulltgU6a56xZRHN4H3l9WmuAYTsLGpBGhQ2"
    },
    "id": "3648677",
    "neo_reference_id": "3648677",
    "name": "(2013 SC21)",
    "designation": "2013 SC21",
    "nasa_jpl_url": "http://ssd.jpl.nasa.gov/sbdb.cgi?sstr=3648677",
    "absolute_magnitude_h": 25.0,
    "estimated_diameter": {
        "kilometers": {
            "estimated_diameter_min": 0.02658,
            "estimated_diameter_max": 0.0594346868
        },
        "meters": {
            "estimated_diameter_min": 26.58,
            "estimated_diameter_max": 59.4346868419
        },
        "miles": {
            "estimated_diameter_min": 0.0165160412,
            "estimated_diameter_max": 0.0369309908
        },
        "feet": {
            "estimated_diameter_min": 87.2047272,
            "estimated_diameter_max": 194.9956979785
        }
    },
    "is_potentially_hazardous_asteroid": false,
    "close_approach_data": [
        {
            "close_approach_date": "2013-10-07",
            "close_approach_date_full": "2013-Oct-07 08:42",
            "epoch_date_close_approach": 1381135320000,
            "relative_velocity": {
                "kilometers_per_second": "11.7236059839",
                "kilometers_per_hour": "42204.9815420198",
                "miles_per_hour": "26224.5342253734"
            },
            "miss_distance": {
                "astronomical": "0.0226173393",
                "lunar": "8.7981449877",
                "kilometers": "3383505.784347291",
                "miles": "2102413.0042069758"
            },
            "orbiting_body": "Earth"
        },
        {
            "close_approach_date": "2014-03-23",
            "close_approach_date_full": "2014-Mar-23 11:24",
            "epoch_date_close_approach": 1395573840000,
            "relative_velocity": {
                "kilometers_per_second": "14.4906593218",
                "kilometers_per_hour": "52166.3735586136",
                "miles_per_hour": "32414.1558370174"
            },
            "miss_distance": {
                "astronomical": "0.0459099838",
                "lunar": "17.8589836982",
                "kilometers": "6868035.788214506",
                "miles": "4267599.5475759428"
            },
            "orbiting_body": "Mars"
        },
        {
            "close_approach_date": "2068-03-02",
            "close_approach_date_full": "2068-Mar-02 16:15",
            "epoch_date_close_approach": 3097930500000,
            "relative_velocity": {
                "kilometers_per_second": "26.501955361",
                "kilometers_per_hour": "95407.0392995233",
                "miles_per_hour": "59282.2239469733"
            },
            "miss_distance": {
                "astronomical": "0.4734177839",
                "lunar": "184.1595179371",
                "kilometers": "70822292.091560293",
                "miles": "44006931.6771583234"
            },
            "orbiting_body": "Earth"
        },
        {
            "close_approach_date": "2070-08-26",
            "close_approach_date_full": "2070-Aug-26 05:14",
            "epoch_date_close_approach": 3176255640000,
            "relative_velocity": {
                "kilometers_per_second": "14.5095662497",
                "kilometers_per_hour": "52234.4384988491",
                "miles_per_hour": "32456.4487439099"
            },
            "miss_distance": {
                "astronomical": "0.046799385",
                "lunar": "18.204960765",
                "kilometers": "7001088.31330995",
                "miles": "4350274.55297931"
            },
            "orbiting_body": "Mars"
        }
    ],
    "orbital_data": {
        "orbit_id": "10",
        "orbit_determination_date": "2017-04-06 08:44:31",
        "first_observation_date": "2013-09-27",
        "last_observation_date": "2013-10-06",
        "data_arc_in_days": 9,
        "observations_used": 44,
        "orbit_uncertainty": "8",
        "minimum_orbit_intersection": ".00548238",
        "jupiter_tisserand_invariant": "4.008",
        "epoch_osculation": "2456564.5",
        "eccentricity": ".5227192915235481",
        "semi_major_axis": "1.717672120119716",
        "inclination": "2.768749013236791",
        "ascending_node_longitude": "185.1997847137655",
        "orbital_period": "822.2593616654008",
        "perihelion_distance": ".819811766420987",
        "perihelion_argument": "248.2300388261537",
        "aphelion_distance": "2.615532473818444",
        "perihelion_time": "2456615.147571325733",
        "mean_anomaly": "337.8255784885993",
        "mean_motion": ".4378180617741553",
        "equinox": "J2000",
        "orbit_class": {
            "orbit_class_type": "APO",
            "orbit_class_description": "Near-Earth asteroid orbits which cross the Earth’s orbit similar to that of 1862 Apollo",
            "orbit_class_range": "a (semi-major axis) > 1.0 AU; q (perihelion) < 1.017 AU"
        }
    },
    "is_sentry_object": false
}